CTC1_L_00547063-01
1 78411U 23528IO  26070.40840278  .00000000  00000+0  00000-0 0  9998
2 78411  97.2000 186.0000 0000000   0.0000  12.0000 15.38683946    13
CTC1_L_00547063-02
1 78412U 22845CK  26070.40840278  .00000000  00000+0  00000-0 0  9990
2 78412  97.2000 186.0000 0000000   0.0000 192.0000 15.38683946    13
CTC1_L_00547064-01
1 78413U 25951ZO  26070.40840278  .00000000  00000+0  00000-0 0  9992
2 78413  97.2000 189.0000 0000000   0.0000  18.0000 15.38683946    14
CTC1_L_00547064-02
1 78414U 25099ZG  26070.40840278  .00000000  00000+0  00000-0 0  9996
2 78414  97.2000 189.0000 0000000   0.0000 198.0000 15.38683946    14
CTC1_L_00547065-01
1 78415U 22198XE  26070.40840278  .00000000  00000+0  00000-0 0  9994
2 78415  97.2000 192.0000 0000000   0.0000  24.0000 15.38683946    17
CTC1_L_00547065-02
1 78416U 22322NB  26070.40840278  .00000000  00000+0  00000-0 0  9994
2 78416  97.2000 192.0000 0000000   0.0000 204.0000 15.38683946    18
CTC1_L_00547066-01
1 78417U 23196WS  26070.40840278  .00000000  00000+0  00000-0 0  9995
2 78417  97.2000 195.0000 0000000   0.0000  30.0000 15.38683946    19
CTC1_L_00547066-02
1 78418U 23017CI  26070.40840278  .00000000  00000+0  00000-0 0  9998
2 78418  97.2000 195.0000 0000000   0.0000 210.0000 15.38683946    10
CTC1_L_00547067-01
1 78419U 22344PI  26070.40840278  .00000000  00000+0  00000-0 0  9991
2 78419  97.2000 198.0000 0000000   0.0000  36.0000 15.38683946    10
CTC1_L_00547067-02
1 78420U 25319BN  26070.40840278  .00000000  00000+0  00000-0 0  9998
2 78420  97.2000 198.0000 0000000   0.0000 216.0000 15.38683946    12
CTC1_L_00547068-01
1 78421U 22131BY  26070.40840278  .00000000  00000+0  00000-0 0  9998
2 78421  97.2000 201.0000 0000000   0.0000  42.0000 15.38683946    15
CTC1_L_00547068-02
1 78422U 24299OJ  26070.40840278  .00000000  00000+0  00000-0 0  9996
2 78422  97.2000 201.0000 0000000   0.0000 222.0000 15.38683946    16
CTC1_L_00547069-01
1 78423U 22619DZ  26070.40840278  .00000000  00000+0  00000-0 0  9991
2 78423  97.2000 204.0000 0000000   0.0000  48.0000 15.38683946    16
CTC1_L_00547069-02
1 78424U 26754MV  26070.40840278  .00000000  00000+0  00000-0 0  9996
2 78424  97.2000 204.0000 0000000   0.0000 228.0000 15.38683946    17
CTC1_L_00547070-01
1 78425U 24101LM  26070.40840278  .00000000  00000+0  00000-0 0  9991
2 78425  97.2000 207.0000 0000000   0.0000  54.0000 15.38683946    18
CTC1_L_00547070-02
1 78426U 26864XW  26070.40840278  .00000000  00000+0  00000-0 0  9990
2 78426  97.2000 207.0000 0000000   0.0000 234.0000 15.38683946    19
CTC1_L_00547071-01
1 78427U 25965VE  26070.40840278  .00000000  00000+0  00000-0 0  9992
2 78427  97.2000 210.0000 0000000   0.0000  60.0000 15.38683946    11
CTC1_L_00547071-02
1 78428U 24923DF  26070.40840278  .00000000  00000+0  00000-0 0  9996
2 78428  97.2000 210.0000 0000000   0.0000 240.0000 15.38683946    12
CTC1_L_00547072-01
1 78429U 26676KC  26070.40840278  .00000000  00000+0  00000-0 0  9994
2 78429  97.2000 213.0000 0000000   0.0000  66.0000 15.38683946    12
CTC1_L_00547072-02
1 78430U 24066CQ  26070.40840278  .00000000  00000+0  00000-0 0  9997
2 78430  97.2000 213.0000 0000000   0.0000 246.0000 15.38683946    14
CTC1_L_00547073-01
1 78431U 24098XC  26070.40840278  .00000000  00000+0  00000-0 0  9993
2 78431  97.2000 216.0000 0000000   0.0000  72.0000 15.38683946    15
CTC1_L_00547073-02
1 78432U 25856GX  26070.40840278  .00000000  00000+0  00000-0 0  9997
2 78432  97.2000 216.0000 0000000   0.0000 252.0000 15.38683946    16
CTC1_L_00547074-01
1 78433U 24770PU  26070.40840278  .00000000  00000+0  00000-0 0  9992
2 78433  97.2000 219.0000 0000000   0.0000  78.0000 15.38683946    16
CTC1_L_00547074-02
1 78434U 23815HT  26070.40840278  .00000000  00000+0  00000-0 0  9992
2 78434  97.2000 219.0000 0000000   0.0000 258.0000 15.38683946    17
CTC1_L_00547075-01
1 78435U 24641HK  26070.40840278  .00000000  00000+0  00000-0 0  9991
2 78435  97.2000 222.0000 0000000   0.0000  84.0000 15.38683946    19
CTC1_L_00547075-02
1 78436U 26854RK  26070.40840278  .00000000  00000+0  00000-0 0  9990
2 78436  97.2000 222.0000 0000000   0.0000 264.0000 15.38683946    10
CTC1_L_00547076-01
1 78437U 24599TN  26070.40840278  .00000000  00000+0  00000-0 0  9995
2 78437  97.2000 225.0000 0000000   0.0000  90.0000 15.38683946    11
CTC1_L_00547076-02
1 78438U 23879XL  26070.40840278  .00000000  00000+0  00000-0 0  9996
2 78438  97.2000 225.0000 0000000   0.0000 270.0000 15.38683946    12
CTC1_L_00547077-01
1 78439U 26534HM  26070.40840278  .00000000  00000+0  00000-0 0  9998
2 78439  97.2000 228.0000 0000000   0.0000  96.0000 15.38683946    12
CTC1_L_00547077-02
1 78440U 26770CI  26070.40840278  .00000000  00000+0  00000-0 0  9992
2 78440  97.2000 228.0000 0000000   0.0000 276.0000 15.38683946    14
CTC1_L_00547078-01
1 78441U 26566GI  26070.40840278  .00000000  00000+0  00000-0 0  9996
2 78441  97.2000 231.0000 0000000   0.0000 102.0000 15.38683946    17
CTC1_L_00547078-02
1 78442U 24922BJ  26070.40840278  .00000000  00000+0  00000-0 0  9991
2 78442  97.2000 231.0000 0000000   0.0000 282.0000 15.38683946    17
CTC1_L_00547079-01
1 78443U 22367XV  26070.40840278  .00000000  00000+0  00000-0 0  9993
2 78443  97.2000 234.0000 0000000   0.0000 108.0000 15.38683946    18
CTC1_L_00547079-02
1 78444U 24357GJ  26070.40840278  .00000000  00000+0  00000-0 0  9995
2 78444  97.2000 234.0000 0000000   0.0000 288.0000 15.38683946    18
CTC1_L_00547080-01
1 78445U 25898PI  26070.40840278  .00000000  00000+0  00000-0 0  9997
2 78445  97.2000 237.0000 0000000   0.0000 114.0000 15.38683946    10
CTC1_L_00547080-02
1 78446U 22451JN  26070.40840278  .00000000  00000+0  00000-0 0  9990
2 78446  97.2000 237.0000 0000000   0.0000 294.0000 15.38683946    10
CTC1_L_00547081-01
1 78447U 23458AT  26070.40840278  .00000000  00000+0  00000-0 0  9999
2 78447  97.2000 240.0000 0000000   0.0000 120.0000 15.38683946    13
CTC1_L_00547081-02
1 78448U 26792ZP  26070.40840278  .00000000  00000+0  00000-0 0  9994
2 78448  97.2000 240.0000 0000000   0.0000 300.0000 15.38683946    14
CTC1_L_00547082-01
1 78449U 24897NC  26070.40840278  .00000000  00000+0  00000-0 0  9999
2 78449  97.2000 243.0000 0000000   0.0000 126.0000 15.38683946    14
CTC1_L_00547082-02
1 78450U 24754GP  26070.40840278  .00000000  00000+0  00000-0 0  9993
2 78450  97.2000 243.0000 0000000   0.0000 306.0000 15.38683946    16
CTC1_L_00547083-01
1 78451U 23556IR  26070.40840278  .00000000  00000+0  00000-0 0  9993
2 78451  97.2000 246.0000 0000000   0.0000 132.0000 15.38683946    17
CTC1_L_00547083-02
1 78452U 22460VY  26070.40840278  .00000000  00000+0  00000-0 0  9997
2 78452  97.2000 246.0000 0000000   0.0000 312.0000 15.38683946    18
CTC1_L_00547084-01
1 78453U 26180LJ  26070.40840278  .00000000  00000+0  00000-0 0  9991
2 78453  97.2000 249.0000 0000000   0.0000 138.0000 15.38683946    18
CTC1_L_00547084-02
1 78454U 22553TB  26070.40840278  .00000000  00000+0  00000-0 0  9992
2 78454  97.2000 249.0000 0000000   0.0000 318.0000 15.38683946    19
CTC1_L_00547085-01
1 78455U 26714OX  26070.40840278  .00000000  00000+0  00000-0 0  9996
2 78455  97.2000 252.0000 0000000   0.0000 144.0000 15.38683946    11
CTC1_L_00547085-02
1 78456U 24447OP  26070.40840278  .00000000  00000+0  00000-0 0  9998
2 78456  97.2000 252.0000 0000000   0.0000 324.0000 15.38683946    12
CTC1_L_00547086-01
1 78457U 26566NN  26070.40840278  .00000000  00000+0  00000-0 0  9993
2 78457  97.2000 255.0000 0000000   0.0000 150.0000 15.38683946    13
CTC1_L_00547086-02
1 78458U 23175PF  26070.40840278  .00000000  00000+0  00000-0 0  9997
2 78458  97.2000 255.0000 0000000   0.0000 330.0000 15.38683946    14
CTC1_L_00547087-01
1 78459U 26315NA  26070.40840278  .00000000  00000+0  00000-0 0  9997
2 78459  97.2000 258.0000 0000000   0.0000 156.0000 15.38683946    14
CTC1_L_00547087-02
1 78460U 22461AF  26070.40840278  .00000000  00000+0  00000-0 0  9997
2 78460  97.2000 258.0000 0000000   0.0000 336.0000 15.38683946    16
CTC1_L_00547088-01
1 78461U 22600XK  26070.40840278  .00000000  00000+0  00000-0 0  9993
2 78461  97.2000 261.0000 0000000   0.0000 162.0000 15.38683946    18
CTC1_L_00547088-02
1 78462U 23082JI  26070.40840278  .00000000  00000+0  00000-0 0  9999
2 78462  97.2000 261.0000 0000000   0.0000 342.0000 15.38683946    19
CTC1_L_00547089-01
1 78463U 22859CB  26070.40840278  .00000000  00000+0  00000-0 0  9991
2 78463  97.2000 264.0000 0000000   0.0000 168.0000 15.38683946    19
CTC1_L_00547089-02
1 78464U 24247IH  26070.40840278  .00000000  00000+0  00000-0 0  9995
2 78464  97.2000 264.0000 0000000   0.0000 348.0000 15.38683946    10
CTC1_L_00547090-01
1 78465U 24715OR  26070.40840278  .00000000  00000+0  00000-0 0  9996
2 78465  97.2000 267.0000 0000000   0.0000 174.0000 15.38683946    11
CTC1_L_00547090-02
1 78466U 23052WQ  26070.40840278  .00000000  00000+0  00000-0 0  9990
2 78466  97.2000 267.0000 0000000   0.0000 354.0000 15.38683946    12
CTC1_L_00547091-01
1 78467U 25771YW  26070.40840278  .00000000  00000+0  00000-0 0  9991
2 78467  97.2000 270.0000 0000000   0.0000 180.0000 15.38683946    14
CTC1_L_00547091-02
1 78468U 24584SB  26070.40840278  .00000000  00000+0  00000-0 0  9993
2 78468  97.2000 270.0000 0000000   0.0000   0.0000 15.38683946    16
CTC1_L_00547092-01
1 78469U 26913PF  26070.40840278  .00000000  00000+0  00000-0 0  9992
2 78469  97.2000 273.0000 0000000   0.0000 186.0000 15.38683946    15
CTC1_L_00547092-02
1 78470U 22318QT  26070.40840278  .00000000  00000+0  00000-0 0  9999
2 78470  97.2000 273.0000 0000000   0.0000   6.0000 15.38683946    18
CTC1_L_00547093-01
1 78471U 24822KB  26070.40840278  .00000000  00000+0  00000-0 0  9992
2 78471  97.2000 276.0000 0000000   0.0000 192.0000 15.38683946    18
CTC1_L_00547093-02
1 78472U 22546JH  26070.40840278  .00000000  00000+0  00000-0 0  9994
2 78472  97.2000 276.0000 0000000   0.0000  12.0000 15.38683946    10
